NORAD_CAT_ID,OBJECT_NAME,OBJECT_TYPE,EPOCH,MEAN_MOTION,ECCENTRICITY,INCLINATION,RA_OF_ASC_NODE,ARG_OF_PERICENTER,MEAN_ANOMALY,BSTAR,MEAN_MOTION_DOT,MEAN_MOTION_DDOT,TLE_LINE0,TLE_LINE1,TLE_LINE2,SEMIMAJOR_AXIS,PERIOD,APOGEE,PERIGEE,DECAYED
52879.0,STARLINK-4139,PAYLOAD,2024-07-20 15:03:04,15.08840186,0.0001235,53.2166,174.4391,90.9981,269.1152,7.3686e-05,8.85e-06,0.0,0 STARLINK-4139,1 52879U 22062BB  24202.62713918  .00000885  00000-0  73686-4 0  9995,2 52879  53.2166 174.4391 0001235  90.9981 269.1152 15.08840186115938,6917.88,95.438,540.599,538.89,0.0
52879.0,STARLINK-4139,PAYLOAD,2024-07-21 06:56:56,15.08841446,0.0001575,53.2178,171.4654,91.0481,269.0691,4.8601e-05,4.86e-06,0.0,0 STARLINK-4139,1 52879U 22062BB  24203.28954142  .00000486  00000-0  48601-4 0  9990,2 52879  53.2178 171.4654 0001575  91.0481 269.0691 15.08841446116527,6917.876,95.437,540.831,538.651,0.0
52879.0,STARLINK-4139,PAYLOAD,2024-07-22 06:47:43,15.08838458,0.0001406,53.2167,167.004,83.6691,276.4461,-4.0803e-07,-2.94e-06,0.0,0 STARLINK-4139,1 52879U 22062BB  24204.28314740 -.00000294  00000-0 -40803-6 0  9992,2 52879  53.2167 167.0040 0001406  83.6691 276.4461 15.08838458116670,6917.885,95.438,540.723,538.777,0.0
52879.0,STARLINK-4139,PAYLOAD,2024-07-23 03:27:43,15.0885223,0.0001409,53.2159,163.1395,86.7002,273.4151,0.00010867,1.443e-05,0.0,0 STARLINK-4139,1 52879U 22062BB  24205.14425480  .00001443  00000-0  10867-3 0  9991,2 52879  53.2159 163.1395 0001409  86.7002 273.4151 15.08852230116806,6917.843,95.437,540.683,538.733,0.0
52879.0,STARLINK-4139,PAYLOAD,2024-07-24 03:18:32,15.08834017,0.0001522,53.2168,158.6782,85.9204,274.1962,1.0471e-06,-2.71e-06,0.0,0 STARLINK-4139,1 52879U 22062BB  24206.13787249 -.00000271  00000-0  10471-5 0  9997,2 52879  53.2168 158.6782 0001522  85.9204 274.1962 15.08834017116953,6917.899,95.438,540.817,538.711,0.0
52879.0,STARLINK-4139,PAYLOAD,2024-07-24 20:47:45,15.08850131,0.0001553,53.2183,155.4032,118.7437,241.3711,-8.1612e-05,-1.587e-05,0.0,0 STARLINK-4139,1 52879U 22062BB  24206.86650440 -.00001587  00000-0 -81612-4 0  9995,2 52879  53.2183 155.4032 0001553 118.7437 241.3711 15.08850131117066,6917.849,95.437,540.789,538.64,0.0
52879.0,STARLINK-4139,PAYLOAD,2024-07-25 03:09:17,15.08859534,0.0001456,53.2172,154.2213,90.5464,269.5695,2.7036e-05,1.43e-06,0.0,0 STARLINK-4139,1 52879U 22062BB  24207.13145554  .00000143  00000-0  27036-4 0  9996,2 52879  53.2172 154.2213 0001456  90.5464 269.5695 15.08859534117105,6917.821,95.436,540.693,538.678,0.0
52879.0,STARLINK-4139,PAYLOAD,2024-07-25 06:20:03,15.08861164,0.0001488,53.2166,153.6234,109.3634,250.7519,8.6174e-05,1.084e-05,0.0,0 STARLINK-4139,1 52879U 22062BB  24207.26393083  .00001084  00000-0  86174-4 0  9995,2 52879  53.2166 153.6234 0001488 109.3634 250.7519 15.08861164116633,6917.816,95.436,540.71,538.651,0.0
52879.0,STARLINK-4139,PAYLOAD,2024-07-26 03:00:05,15.08839093,0.0001137,53.2146,149.7505,85.7563,274.3559,9.0861e-05,1.158e-05,0.0,0 STARLINK-4139,1 52879U 22062BB  24208.12506573  .00001158  00000-0  90861-4 0  9991,2 52879  53.2146 149.7505 0001137  85.7563 274.3559 15.08839093117258,6917.883,95.438,540.535,538.962,0.0
52879.0,STARLINK-4139,PAYLOAD,2024-07-26 20:29:20,15.08847872,0.0001294,53.2149,146.4791,99.976,260.1378,-6.2908e-05,-1.289e-05,0.0,0 STARLINK-4139,1 52879U 22062BB  24208.85370531 -.00001289  00000-0 -62908-4 0  9992,2 52879  53.2149 146.4791 0001294  99.9760 260.1378 15.08847872116875,6917.856,95.437,540.616,538.826,0.0
52879.0,STARLINK-4139,PAYLOAD,2024-07-27 02:50:52,15.08850454,0.0001341,53.2161,145.3006,87.3276,272.787,6.2152e-05,7.02e-06,0.0,0 STARLINK-4139,1 52879U 22062BB  24209.11865969  .00000702  00000-0  62152-4 0  9994,2 52879  53.2161 145.3006 0001341  87.3276 272.7870 15.08850454117408,6917.848,95.437,540.641,538.786,0.0
52879.0,STARLINK-4139,PAYLOAD,2024-07-27 20:20:07,15.08832739,0.0001132,53.2157,142.0264,86.1251,273.987,2.0152e-05,3.3e-07,0.0,0 STARLINK-4139,1 52879U 22062BB  24209.84731366  .00000033  00000-0  20152-4 0  9998,2 52879  53.2157 142.0264 0001132  86.1251 273.9870 15.08832739117028,6917.903,95.438,540.551,538.984,0.0
52879.0,STARLINK-4139,PAYLOAD,2024-07-28 02:41:41,15.08825775,0.0001392,53.2162,140.8418,102.2716,257.8432,-4.7749e-05,-1.047e-05,0.0,0 STARLINK-4139,1 52879U 22062BB  24210.11228060 -.00001047  00000-0 -47749-4 0  9991,2 52879  53.2162 140.8418 0001392 102.2716 257.8432 15.08825775117550,6917.924,95.438,540.752,538.826,0.0
52879.0,STARLINK-4139,PAYLOAD,2024-07-28 18:35:32,15.08837079,0.000129,53.2164,137.8651,85.58,274.534,-3.4306e-05,-8.34e-06,0.0,0 STARLINK-4139,1 52879U 22062BB  24210.77467685 -.00000834  00000-0 -34306-4 0  9999,2 52879  53.2164 137.8651 0001290  85.5800 274.5340 15.08837079117656,6917.889,95.438,540.647,538.862,0.0
52879.0,STARLINK-4139,PAYLOAD,2024-07-29 02:32:30,15.08696533,0.0002357,53.2169,136.3788,74.6766,285.4486,0.0020418,0.00032229,0.0,0 STARLINK-4139,1 52879U 22062BB  24211.10590753  .00032229  00000-0  20418-2 0  9998,2 52879  53.2169 136.3788 0002357  74.6766 285.4486 15.08696533117707,6918.319,95.447,541.815,538.553,0.0
52879.0,STARLINK-4139,PAYLOAD,2024-07-29 12:04:46,15.08837429,0.0001173,53.2182,134.5936,89.3974,270.7152,0.00012227,1.658e-05,0.0,0 STARLINK-4139,1 52879U 22062BB  24211.50331211  .00001658  00000-0  12227-3 0  9996,2 52879  53.2182 134.5936 0001173  89.3974 270.7152 15.08837429117760,6917.888,95.438,540.565,538.942,0.0
52879.0,STARLINK-4139,PAYLOAD,2024-07-30 02:23:14,15.08842711,0.0001403,53.217,131.9179,90.6136,269.5017,0.00017076,2.431e-05,0.0,0 STARLINK-4139,1 52879U 22062BB  24212.09946977  .00002431  00000-0  17076-3 0  9999,2 52879  53.2170 131.9179 0001403  90.6136 269.5017 15.08842711117360,6917.872,95.437,540.708,538.767,0.0
52879.0,STARLINK-4139,PAYLOAD,2024-07-30 18:17:06,15.08840953,0.0001664,53.2174,128.9454,78.0693,282.0486,6.5835e-05,7.6e-06,0.0,0 STARLINK-4139,1 52879U 22062BB  24212.76187613  .00000760  00000-0  65835-4 0  9997,2 52879  53.2174 128.9454 0001664  78.0693 282.0486 15.08840953117954,6917.877,95.437,540.894,538.591,0.0
52879.0,STARLINK-4139,PAYLOAD,2024-07-30 23:03:15,15.0884163,0.0001551,53.2171,128.0538,81.0807,279.0361,7.1593e-05,8.52e-06,0.0,0 STARLINK-4139,1 52879U 22062BB  24212.96059455  .00000852  00000-0  71593-4 0  9991,2 52879  53.2171 128.0538 0001551  81.0807 279.0361 15.08841630117491,6917.875,95.437,540.813,538.667,0.0
52879.0,STARLINK-4139,PAYLOAD,2024-07-31 11:46:20,15.08844273,0.0001516,53.2163,125.6738,84.6258,275.4907,2.3587e-05,8.7e-07,0.0,0 STARLINK-4139,1 52879U 22062BB  24213.49051152  .00000087  00000-0  23587-4 0  9996,2 52879  53.2163 125.6738 0001516  84.6258 275.4907 15.08844273117578,6917.867,95.437,540.781,538.684,0.0
52879.0,STARLINK-4139,PAYLOAD,2024-07-31 22:54:02,15.08836674,0.0001706,53.2169,123.5919,94.3668,265.7519,-1.4484e-05,-5.19e-06,0.0,0 STARLINK-4139,1 52879U 22062BB  24213.95419886 -.00000519  00000-0 -14484-4 0  9997,2 52879  53.2169 123.5919 0001706  94.3668 265.7519 15.08836674117641,6917.891,95.438,540.936,538.575,0.0
52879.0,STARLINK-4139,PAYLOAD,2024-08-01 00:29:25,15.08834782,0.0001408,53.2172,123.2928,97.5168,262.5984,-2.5661e-05,-6.96e-06,0.0,0 STARLINK-4139,1 52879U 22062BB  24214.02043942 -.00000696  00000-0 -25661-4 0  9997,2 52879  53.2172 123.2928 0001408  97.5168 262.5984 15.08834782118146,6917.896,95.438,540.735,538.787,0.0
52879.0,STARLINK-4139,PAYLOAD,2024-08-01 21:09:25,15.08856196,0.0001641,53.2184,119.426,107.1288,252.9884,4.5071e-05,4.3e-06,0.0,0 STARLINK-4139,1 52879U 22062BB  24214.88154146  .00000430  00000-0  45071-4 0  9991,2 52879  53.2184 119.4260 0001641 107.1288 252.9884 15.08856196118274,6917.831,95.437,540.831,538.561,0.0
52879.0,STARLINK-4139,PAYLOAD,2024-08-01 22:44:48,15.08856781,0.0001687,53.2183,119.1287,109.3596,250.7578,6.5952e-05,7.62e-06,0.0,0 STARLINK-4139,1 52879U 22062BB  24214.94777992  .00000762  00000-0  65952-4 0  9996,2 52879  53.2183 119.1287 0001687 109.3596 250.7578 15.08856781117797,6917.829,95.436,540.861,538.527,0.0
52879.0,STARLINK-4139,PAYLOAD,2024-08-02 00:20:11,15.08859796,0.0001646,53.2178,118.8309,105.4388,254.6786,8.4473e-05,1.057e-05,0.0,0 STARLINK-4139,1 52879U 22062BB  24215.01401720  .00001057  00000-0  84473-4 0  9995,2 52879  53.2178 118.8309 0001646 105.4388 254.6786 15.08859796117808,6917.82,95.436,540.824,538.546,0.0
52879.0,STARLINK-4139,PAYLOAD,2024-08-02 21:00:13,15.08830084,0.0001549,53.2173,114.9657,106.1861,253.9302,3.5164e-05,2.72e-06,0.0,0 STARLINK-4139,1 52879U 22062BB  24215.87516016  .00000272  00000-0  35164-4 0  9995,2 52879  53.2173 114.9657 0001549 106.1861 253.9302 15.08830084118426,6917.911,95.438,540.847,538.704,0.0
52879.0,STARLINK-4139,PAYLOAD,2024-08-02 22:35:37,15.08830234,0.0001595,53.2173,114.6682,110.6493,249.467,3.8355e-05,3.22e-06,0.0,0 STARLINK-4139,1 52879U 22062BB  24215.94140064  .00000322  00000-0  38355-4 0  9990,2 52879  53.2173 114.6682 0001595 110.6493 249.4670 15.08830234117944,6917.91,95.438,540.879,538.672,0.0
52879.0,STARLINK-4139,PAYLOAD,2024-08-03 09:43:18,15.08843349,0.000127,53.217,112.5884,87.1592,272.9545,4.8056e-05,4.77e-06,0.0,0 STARLINK-4139,1 52879U 22062BB  24216.40507346  .00000477  00000-0  48056-4 0  9992,2 52879  53.2170 112.5884 0001270  87.1592 272.9545 15.08843349118506,6917.87,95.437,540.614,538.857,0.0
52879.0,STARLINK-4139,PAYLOAD,2024-08-03 20:50:58,15.08864147,0.0001517,53.2175,110.5116,108.0889,252.0269,8.2033e-05,1.019e-05,0.0,0 STARLINK-4139,1 52879U 22062BB  24216.86873807  .00001019  00000-0  82033-4 0  9996,2 52879  53.2175 110.5116 0001517 108.0889 252.0269 15.08864147118571,6917.807,95.436,540.721,538.622,0.0
52879.0,STARLINK-4139,PAYLOAD,2024-08-03 22:26:21,15.08865396,0.0001524,53.2177,110.2147,107.3116,252.8043,9.2343e-05,1.183e-05,0.0,0 STARLINK-4139,1 52879U 22062BB  24216.93497630  .00001183  00000-0  92343-4 0  9997,2 52879  53.2177 110.2147 0001524 107.3116 252.8043 15.08865396118099,6917.803,95.436,540.722,538.613,0.0
